$$SOE
2461295.500000000, A.D. 2026-Sep-12 00:00:00.0000, -7.775522029305185E+08, -9.978012488055030E+07, 3.670152990299429E+07,
2461302.500000000, A.D. 2026-Sep-19 00:00:00.0000, -7.767977418787234E+08, -1.074803149642102E+08, 3.789365746030685E+07,
2461309.500000000, A.D. 2026-Sep-26 00:00:00.0000, -7.759653048327767E+08, -1.151697004900823E+08, 3.908198088797446E+07,
2461316.500000000, A.D. 2026-Oct-03 00:00:00.0000, -7.750550734766067E+08, -1.228475261967364E+08, 4.026638581827410E+07,
2461323.500000000, A.D. 2026-Oct-10 00:00:00.0000, -7.740672361952085E+08, -1.305130400372254E+08, 4.144675852000790E+07,
2461330.500000000, A.D. 2026-Oct-17 00:00:00.0000, -7.730019880722990E+08, -1.381654931664031E+08, 4.262298591144369E+07,
2461337.500000000, A.D. 2026-Oct-24 00:00:00.0000, -7.718595308983046E+08, -1.458041400233850E+08, 4.379495556545413E+07,
2461344.500000000, A.D. 2026-Oct-31 00:00:00.0000, -7.706400730899028E+08, -1.534282385757985E+08, 4.496255569247229E+07,
2461351.500000000, A.D. 2026-Nov-07 00:00:00.0000, -7.693438291820507E+08, -1.610370506517128E+08, 4.612567507638369E+07,
2461358.500000000, A.D. 2026-Nov-14 00:00:00.0000, -7.679710186915685E+08, -1.686298414718250E+08, 4.728420301765169E+07,
2461365.500000000, A.D. 2026-Nov-21 00:00:00.0000, -7.665218661639581E+08, -1.762058777000974E+08, 4.843802950579173E+07,
2461372.500000000, A.D. 2026-Nov-28 00:00:00.0000, -7.649966034016669E+08, -1.837644270210469E+08, 4.958704546716631E+07,
2461379.500000000, A.D. 2026-Dec-05 00:00:00.0000, -7.633954702545278E+08, -1.913047599000209E+08, 5.073114270279510E+07,
2461386.500000000, A.D. 2026-Dec-12 00:00:00.0000, -7.617187138074262E+08, -1.988261504153315E+08, 5.187021375559787E+07,
2461393.500000000, A.D. 2026-Dec-19 00:00:00.0000, -7.599665878522899E+08, -2.063278761558217E+08, 5.300415188093954E+07,
2461400.500000000, A.D. 2026-Dec-26 00:00:00.0000, -7.581393527868524E+08, -2.138092180520582E+08, 5.413285106281383E+07,
2461407.500000000, A.D. 2027-Jan-02 00:00:00.0000, -7.562372756647418E+08, -2.212694603322581E+08, 5.525620603494234E+07,
2461414.500000000, A.D. 2027-Jan-09 00:00:00.0000, -7.542606302806909E+08, -2.287078905829583E+08, 5.637411229785048E+07,
2461421.500000000, A.D. 2027-Jan-16 00:00:00.0000, -7.522096972566700E+08, -2.361237999057776E+08, 5.748646612948754E+07,
2461428.500000000, A.D. 2027-Jan-23 00:00:00.0000, -7.500847640843850E+08, -2.435164832100355E+08, 5.859316458196595E+07,
2461435.500000000, A.D. 2027-Jan-30 00:00:00.0000, -7.478861249379836E+08, -2.508852396891049E+08, 5.969410544326665E+07,
2461442.500000000, A.D. 2027-Feb-06 00:00:00.0000, -7.456140798337704E+08, -2.582293731405289E+08, 6.078918715264764E+07,
2461449.500000000, A.D. 2027-Feb-13 00:00:00.0000, -7.432689335985936E+08, -2.655481909103123E+08, 6.187830881149787E+07,
2461456.500000000, A.D. 2027-Feb-20 00:00:00.0000, -7.408509970119101E+08, -2.728410022525908E+08, 6.296137044159537E+07,
2461463.500000000, A.D. 2027-Feb-27 00:00:00.0000, -7.383605887266780E+08, -2.801071193186263E+08, 6.403827309991175E+07,
2461470.500000000, A.D. 2027-Mar-06 00:00:00.0000, -7.357980349517826E+08, -2.873458588526287E+08, 6.510891873009831E+07,
2461477.500000000, A.D. 2027-Mar-13 00:00:00.0000, -7.331636684965584E+08, -2.945565425448853E+08, 6.617321006472678E+07,
2461484.500000000, A.D. 2027-Mar-20 00:00:00.0000, -7.304578283069439E+08, -3.017384968768708E+08, 6.723105061347760E+07,
2461491.500000000, A.D. 2027-Mar-27 00:00:00.0000, -7.276808592913903E+08, -3.088910530073372E+08, 6.828234467374830E+07,
2461498.500000000, A.D. 2027-Apr-03 00:00:00.0000, -7.248331122337494E+08, -3.160135467471163E+08, 6.932699734107283E+07,
2461505.500000000, A.D. 2027-Apr-10 00:00:00.0000, -7.219149437319564E+08, -3.231053185995176E+08, 7.036491451555406E+07,
2461512.500000000, A.D. 2027-Apr-17 00:00:00.0000, -7.189267161404181E+08, -3.301657138805705E+08, 7.139600290106805E+07,
2461519.500000000, A.D. 2027-Apr-24 00:00:00.0000, -7.158687974368433E+08, -3.371940829812296E+08, 7.242016998486610E+07,
2461526.500000000, A.D. 2027-May-01 00:00:00.0000, -7.127415607138230E+08, -3.441897817437150E+08, 7.343732397235590E+07,
2461533.500000000, A.D. 2027-May-08 00:00:00.0000, -7.095453829876816E+08, -3.511521712035717E+08, 7.444737371003053E+07,
2461540.500000000, A.D. 2027-May-15 00:00:00.0000, -7.062806448213459E+08, -3.580806157440345E+08, 7.545022881175637E+07,
2461547.500000000, A.D. 2027-May-22 00:00:00.0000, -7.029477323250499E+08, -3.649744822544404E+08, 7.644579992007716E+07,
2461554.500000000, A.D. 2027-May-29 00:00:00.0000, -6.995470381791613E+08, -3.718331417611059E+08, 7.743399867484589E+07,
2461561.500000000, A.D. 2027-Jun-05 00:00:00.0000, -6.960789607944316E+08, -3.786559703988428E+08, 7.841473756409399E+07,
2461568.500000000, A.D. 2027-Jun-12 00:00:00.0000, -6.925439036171017E+08, -3.854423492912056E+08, 7.938792987665066E+07,
2461575.500000000, A.D. 2027-Jun-19 00:00:00.0000, -6.889422749097892E+08, -3.921916642744935E+08, 8.035348971058649E+07,
2461582.500000000, A.D. 2027-Jun-26 00:00:00.0000, -6.852744877287506E+08, -3.989033057268922E+08, 8.131133199067625E+07,
2461589.500000000, A.D. 2027-Jul-03 00:00:00.0000, -6.815409599654430E+08, -4.055766684945163E+08, 8.226137248366301E+07,
2461596.500000000, A.D. 2027-Jul-10 00:00:00.0000, -6.777421144156055E+08, -4.122111519056402E+08, 8.320352780890237E+07,
2461603.500000000, A.D. 2027-Jul-17 00:00:00.0000, -6.738783788395424E+08, -4.188061599119875E+08, 8.413771543813820E+07,
2461610.500000000, A.D. 2027-Jul-24 00:00:00.0000, -6.699501858572062E+08, -4.253611014198769E+08, 8.506385366518050E+07,
2461617.500000000, A.D. 2027-Jul-31 00:00:00.0000, -6.659579722666570E+08, -4.318753905757025E+08, 8.598186152722903E+07,
2461624.500000000, A.D. 2027-Aug-07 00:00:00.0000, -6.619021779865818E+08, -4.383484458539895E+08, 8.689165879054956E+07,
2461631.500000000, A.D. 2027-Aug-14 00:00:00.0000, -6.577832469238949E+08, -4.447796882013581E+08, 8.779316619094479E+07,
2461638.500000000, A.D. 2027-Aug-21 00:00:00.0000, -6.536016291482459E+08, -4.511685416007385E+08, 8.868630559742622E+07,
2461645.500000000, A.D. 2027-Aug-28 00:00:00.0000, -6.493577809425951E+08, -4.575144348527424E+08, 8.957099988275662E+07,
2461652.500000000, A.D. 2027-Sep-04 00:00:00.0000, -6.450521639111168E+08, -4.638168020717621E+08, 9.044717281359062E+07,
2461659.500000000, A.D. 2027-Sep-11 00:00:00.0000, -6.406852445396564E+08, -4.700750825579716E+08, 9.131474903392832E+07,
2461666.500000000, A.D. 2027-Sep-18 00:00:00.0000, -6.362574940754881E+08, -4.762887206952589E+08, 9.217365407627019E+07,
2461673.500000000, A.D. 2027-Sep-25 00:00:00.0000, -6.317693884974709E+08, -4.824571659524614E+08, 9.302381437286194E+07,
2461680.500000000, A.D. 2027-Oct-02 00:00:00.0000, -6.272214085014945E+08, -4.885798729599738E+08, 9.386515726212148E+07,
2461687.500000000, A.D. 2027-Oct-09 00:00:00.0000, -6.226140394786260E+08, -4.946563016657985E+08, 9.469761098754999E+07,
2461694.500000000, A.D. 2027-Oct-16 00:00:00.0000, -6.179477714225979E+08, -5.006859176255136E+08, 9.552110467860778E+07,
2461701.500000000, A.D. 2027-Oct-23 00:00:00.0000, -6.132230985065851E+08, -5.066681924315239E+08, 9.633556828906186E+07,
2461708.500000000, A.D. 2027-Oct-30 00:00:00.0000, -6.084405179544188E+08, -5.126026036710009E+08, 9.714093250818101E+07,
2461715.500000000, A.D. 2027-Nov-06 00:00:00.0000, -6.036005293695685E+08, -5.184886332841301E+08, 9.793712884358197E+07,
2461722.500000000, A.D. 2027-Nov-13 00:00:00.0000, -5.987036365072283E+08, -5.243257663987366E+08, 9.872408988807848E+07,
2461729.500000000, A.D. 2027-Nov-20 00:00:00.0000, -5.937503485877588E+08, -5.301134928271918E+08, 9.950174932577297E+07,
2461736.500000000, A.D. 2027-Nov-27 00:00:00.0000, -5.887411795341152E+08, -5.358513082610446E+08, 1.002700417713801E+08,
2461743.500000000, A.D. 2027-Dec-04 00:00:00.0000, -5.836766471568464E+08, -5.415387142492105E+08, 1.010289027031055E+08,
2461750.500000000, A.D. 2027-Dec-11 00:00:00.0000, -5.785572728371341E+08, -5.471752179234838E+08, 1.017782684608191E+08,
2461757.500000000, A.D. 2027-Dec-18 00:00:00.0000, -5.733835814328104E+08, -5.527603318103654E+08, 1.025180762566497E+08,
2461764.500000000, A.D. 2027-Dec-25 00:00:00.0000, -5.681561012553253E+08, -5.582935737312912E+08, 1.032482641839607E+08,
2461771.500000000, A.D. 2028-Jan-01 00:00:00.0000, -5.628753640762466E+08, -5.637744667766137E+08, 1.039687712222161E+08,
$$EOE